start=new Date('2022-05-04T00:00:00.000Z').valueOf();
sats=[{"TLE_LINE2":"2 50175  53.2175  79.8734 0002093  45.2516  81.5900 15.08836822  3603","CENTER_NAME":"EARTH","RA_OF_ASC_NODE":"79.8734","APOAPSIS":"541.203","MEAN_ELEMENT_THEORY":"SGP4","REV_AT_EPOCH":"360","MEAN_MOTION_DOT":"0.00000420","ELEMENT_SET_NO":"999","SEMIMAJOR_AXIS":"6917.890","SITE":"AFWTR","EPHEMERIS_TYPE":"0","ECCENTRICITY":"0.00020930","MEAN_MOTION_DDOT":"0.0000000000000","COUNTRY_CODE":"US","CLASSIFICATION_TYPE":"U","ARG_OF_PERICENTER":"45.2516","TIME_SYSTEM":"UTC","RCS_SIZE":"LARGE","INCLINATION":"53.2175","FILE":"3427573","OBJECT_TYPE":"PAYLOAD","DECAY_DATE":null,"PERIAPSIS":"538.307","LAUNCH_DATE":"2021-12-18","GP_ID":"202637111","NORAD_CAT_ID":"50175","OBJECT_NAME":"STARLINK-3291","REF_FRAME":"TEME","EPOCH":"2022-05-03T22:00:00.999936","MEAN_ANOMALY":"81.5900","PERIOD":"95.438","MEAN_MOTION":"15.08836822","BSTAR":"0.00004447800000","OBJECT_ID":"2021-125V","TLE_LINE1":"1 50175U 21125V   22123.91667824  .00000420  00000-0  44478-4 0  9999"},{"CLASSIFICATION_TYPE":"U","MEAN_MOTION_DDOT":"0.0000000000000","COUNTRY_CODE":"US","ECCENTRICITY":"0.00025740","SITE":"AFWTR","EPHEMERIS_TYPE":"0","RCS_SIZE":"LARGE","TIME_SYSTEM":"UTC","ARG_OF_PERICENTER":"44.3802","REV_AT_EPOCH":"2128","APOAPSIS":"541.487","MEAN_ELEMENT_THEORY":"SGP4","RA_OF_ASC_NODE":"79.8796","TLE_LINE2":"2 50176  53.2197  79.8796 0002574  44.3802 182.4665 15.08852798 21281","CENTER_NAME":"EARTH","SEMIMAJOR_AXIS":"6917.841","MEAN_MOTION_DOT":"0.00009330","ELEMENT_SET_NO":"999","MEAN_MOTION":"15.08852798","PERIOD":"95.437","TLE_LINE1":"1 50176U 21125W   22123.91667824  .00009330  00000-0  60332-3 0  9995","OBJECT_ID":"2021-125W","BSTAR":"0.00060332000000","GP_ID":"202612438","OBJECT_NAME":"STARLINK-3293","NORAD_CAT_ID":"50176","LAUNCH_DATE":"2021-12-18","PERIAPSIS":"537.926","DECAY_DATE":null,"OBJECT_TYPE":"PAYLOAD","FILE":"3427543","INCLINATION":"53.2197","REF_FRAME":"TEME","MEAN_ANOMALY":"182.4665","EPOCH":"2022-05-03T22:00:00.999936"},{"NORAD_CAT_ID":"50177","GP_ID":"202635607","OBJECT_NAME":"STARLINK-3282","PERIAPSIS":"538.073","LAUNCH_DATE":"2021-12-18","OBJECT_TYPE":"PAYLOAD","FILE":"3427573","INCLINATION":"53.2178","DECAY_DATE":null,"EPOCH":"2022-05-03T22:00:00.999936","REF_FRAME":"TEME","MEAN_ANOMALY":"127.4154","PERIOD":"95.437","MEAN_MOTION":"15.08845275","TLE_LINE1":"1 50177U 21125X   22123.91667824  .00009440  00000-0  61031-3 0  9995","BSTAR":"0.00061031000000","OBJECT_ID":"2021-125X","REV_AT_EPOCH":"356","RA_OF_ASC_NODE":"79.8826","CENTER_NAME":"EARTH","TLE_LINE2":"2 50177  53.2178  79.8826 0002394  39.4178 127.4154 15.08845275  3561","APOAPSIS":"541.385","MEAN_ELEMENT_THEORY":"SGP4","SEMIMAJOR_AXIS":"6917.864","MEAN_MOTION_DOT":"0.00009440","ELEMENT_SET_NO":"999","COUNTRY_CODE":"US","MEAN_MOTION_DDOT":"0.0000000000000","CLASSIFICATION_TYPE":"U","EPHEMERIS_TYPE":"0","SITE":"AFWTR","ECCENTRICITY":"0.00023940","ARG_OF_PERICENTER":"39.4178","RCS_SIZE":"LARGE","TIME_SYSTEM":"UTC"},{"OBJECT_TYPE":"PAYLOAD","INCLINATION":"53.2162","FILE":"3427543","DECAY_DATE":null,"NORAD_CAT_ID":"50178","GP_ID":"202612277","OBJECT_NAME":"STARLINK-3284","LAUNCH_DATE":"2021-12-18","PERIAPSIS":"538.402","REF_FRAME":"TEME","MEAN_ANOMALY":"344.3712","EPOCH":"2022-05-03T22:00:00.999936","PERIOD":"95.437","MEAN_MOTION":"15.08849068","OBJECT_ID":"2021-125Y","BSTAR":"0.00060072000000","TLE_LINE1":"1 50178U 21125Y   22123.91667824  .00009288  00000-0  60072-3 0  9990","RA_OF_ASC_NODE":"79.8785","TLE_LINE2":"2 50178  53.2162  79.8785 0001902  42.4647 344.3712 15.08849068 23890","CENTER_NAME":"EARTH","APOAPSIS":"541.033","MEAN_ELEMENT_THEORY":"SGP4","REV_AT_EPOCH":"2389","ELEMENT_SET_NO":"999","MEAN_MOTION_DOT":"0.00009288","SEMIMAJOR_AXIS":"6917.853","SITE":"AFWTR","EPHEMERIS_TYPE":"0","ECCENTRICITY":"0.00019020","MEAN_MOTION_DDOT":"0.0000000000000","COUNTRY_CODE":"US","CLASSIFICATION_TYPE":"U","ARG_OF_PERICENTER":"42.4647","RCS_SIZE":"LARGE","TIME_SYSTEM":"UTC"},{"PERIOD":"95.437","MEAN_MOTION":"15.08853914","OBJECT_ID":"2021-125Z","BSTAR":"0.00048746000000","TLE_LINE1":"1 50179U 21125Z   22123.91667824  .00007481  00000-0  48746-3 0  9998","OBJECT_TYPE":"PAYLOAD","FILE":"3427573","INCLINATION":"53.2193","DECAY_DATE":null,"NORAD_CAT_ID":"50179","GP_ID":"202636612","OBJECT_NAME":"STARLINK-3283","LAUNCH_DATE":"2021-12-18","PERIAPSIS":"538.130","REF_FRAME":"TEME","EPOCH":"2022-05-03T22:00:00.999936","MEAN_ANOMALY":"165.5121","SITE":"AFWTR","EPHEMERIS_TYPE":"0","ECCENTRICITY":"0.00022740","COUNTRY_CODE":"US","MEAN_MOTION_DDOT":"0.0000000000000","CLASSIFICATION_TYPE":"U","ARG_OF_PERICENTER":"41.3252","RCS_SIZE":"LARGE","TIME_SYSTEM":"UTC","RA_OF_ASC_NODE":"79.8771","CENTER_NAME":"EARTH","TLE_LINE2":"2 50179  53.2193  79.8771 0002274  41.3252 165.5121 15.08853914  3567","MEAN_ELEMENT_THEORY":"SGP4","APOAPSIS":"541.276","REV_AT_EPOCH":"356","ELEMENT_SET_NO":"999","MEAN_MOTION_DOT":"0.00007481","SEMIMAJOR_AXIS":"6917.838"},{"CLASSIFICATION_TYPE":"U","MEAN_MOTION_DDOT":"0.0000000000000","COUNTRY_CODE":"US","ECCENTRICITY":"0.00025070","SITE":"AFWTR","EPHEMERIS_TYPE":"0","RCS_SIZE":"LARGE","TIME_SYSTEM":"UTC","ARG_OF_PERICENTER":"36.9290","REV_AT_EPOCH":"356","APOAPSIS":"541.436","MEAN_ELEMENT_THEORY":"SGP4","RA_OF_ASC_NODE":"79.8757","TLE_LINE2":"2 50180  53.2190  79.8757 0002507  36.9290 249.9215 15.08854240  3565","CENTER_NAME":"EARTH","SEMIMAJOR_AXIS":"6917.837","ELEMENT_SET_NO":"999","MEAN_MOTION_DOT":"-0.00000835","MEAN_MOTION":"15.08854240","PERIOD":"95.437","TLE_LINE1":"1 50180U 21125AA  22123.91667824 -.00000835  00000-0 -34325-4 0  9997","OBJECT_ID":"2021-125AA","BSTAR":"-0.00003432500000","GP_ID":"202635360","OBJECT_NAME":"STARLINK-3265","NORAD_CAT_ID":"50180","PERIAPSIS":"537.968","LAUNCH_DATE":"2021-12-18","DECAY_DATE":null,"OBJECT_TYPE":"PAYLOAD","FILE":"3427573","INCLINATION":"53.2190","EPOCH":"2022-05-03T22:00:00.999936","REF_FRAME":"TEME","MEAN_ANOMALY":"249.9215"},{"BSTAR":"0.00057612000000","OBJECT_ID":"2021-125AB","TLE_LINE1":"1 50181U 21125AB  22123.91667824  .00008894  00000-0  57612-3 0  9992","PERIOD":"95.437","MEAN_MOTION":"15.08842898","REF_FRAME":"TEME","EPOCH":"2022-05-03T22:00:00.999936","MEAN_ANOMALY":"283.4018","OBJECT_TYPE":"PAYLOAD","INCLINATION":"53.2175","FILE":"3427543","DECAY_DATE":null,"OBJECT_NAME":"STARLINK-3285","GP_ID":"202612444","NORAD_CAT_ID":"50181","PERIAPSIS":"538.249","LAUNCH_DATE":"2021-12-18","ARG_OF_PERICENTER":"43.4244","RCS_SIZE":"LARGE","TIME_SYSTEM":"UTC","EPHEMERIS_TYPE":"0","SITE":"AFWTR","ECCENTRICITY":"0.00021500","MEAN_MOTION_DDOT":"0.0000000000000","COUNTRY_CODE":"US","CLASSIFICATION_TYPE":"U","ELEMENT_SET_NO":"999","MEAN_MOTION_DOT":"0.00008894","SEMIMAJOR_AXIS":"6917.872","RA_OF_ASC_NODE":"79.8677","TLE_LINE2":"2 50181  53.2175  79.8677 0002150  43.4244 283.4018 15.08842898 23894","CENTER_NAME":"EARTH","APOAPSIS":"541.224","MEAN_ELEMENT_THEORY":"SGP4","REV_AT_EPOCH":"2389"},{"MEAN_ANOMALY":"326.0681","REF_FRAME":"TEME","EPOCH":"2022-05-03T22:00:00.999936","OBJECT_NAME":"STARLINK-3277","GP_ID":"202612274","NORAD_CAT_ID":"50182","PERIAPSIS":"538.197","LAUNCH_DATE":"2021-12-18","OBJECT_TYPE":"PAYLOAD","FILE":"3427543","INCLINATION":"53.2182","DECAY_DATE":null,"TLE_LINE1":"1 50182U 21125AC  22123.91667824  .00008681  00000-0  56278-3 0  9994","BSTAR":"0.00056278000000","OBJECT_ID":"2021-125AC","PERIOD":"95.437","MEAN_MOTION":"15.08843164","SEMIMAJOR_AXIS":"6917.871","ELEMENT_SET_NO":"999","MEAN_MOTION_DOT":"0.00008681","REV_AT_EPOCH":"2389","RA_OF_ASC_NODE":"79.8678","CENTER_NAME":"EARTH","TLE_LINE2":"2 50182  53.2182  79.8678 0002224  40.7669 326.0681 15.08843164 23894","APOAPSIS":"541.274","MEAN_ELEMENT_THEORY":"SGP4","ARG_OF_PERICENTER":"40.7669","RCS_SIZE":"LARGE","TIME_SYSTEM":"UTC","MEAN_MOTION_DDOT":"0.0000000000000","COUNTRY_CODE":"US","CLASSIFICATION_TYPE":"U","SITE":"AFWTR","EPHEMERIS_TYPE":"0","ECCENTRICITY":"0.00022240"},{"FILE":"3427543","INCLINATION":"53.2188","OBJECT_TYPE":"PAYLOAD","DECAY_DATE":null,"PERIAPSIS":"537.967","LAUNCH_DATE":"2021-12-18","GP_ID":"202612439","OBJECT_NAME":"STARLINK-3281","NORAD_CAT_ID":"50183","MEAN_ANOMALY":"311.7854","REF_FRAME":"TEME","EPOCH":"2022-05-03T22:00:00.999936","PERIOD":"95.437","MEAN_MOTION":"15.08844013","OBJECT_ID":"2021-125AD","BSTAR":"0.00054771000000","TLE_LINE1":"1 50183U 21125AD  22123.91667824  .00008440  00000-0  54771-3 0  9994","TLE_LINE2":"2 50183  53.2188  79.8721 0002553  35.0353 311.7854 15.08844013 21291","CENTER_NAME":"EARTH","RA_OF_ASC_NODE":"79.8721","MEAN_ELEMENT_THEORY":"SGP4","APOAPSIS":"541.499","REV_AT_EPOCH":"2129","MEAN_MOTION_DOT":"0.00008440","ELEMENT_SET_NO":"999","SEMIMAJOR_AXIS":"6917.868","EPHEMERIS_TYPE":"0","SITE":"AFWTR","ECCENTRICITY":"0.00025530","MEAN_MOTION_DDOT":"0.0000000000000","COUNTRY_CODE":"US","CLASSIFICATION_TYPE":"U","ARG_OF_PERICENTER":"35.0353","TIME_SYSTEM":"UTC","RCS_SIZE":"LARGE"},{"OBJECT_TYPE":"PAYLOAD","INCLINATION":"53.2191","FILE":"3427543","DECAY_DATE":null,"NORAD_CAT_ID":"50185","GP_ID":"202612447","OBJECT_NAME":"STARLINK-3279","LAUNCH_DATE":"2021-12-18","PERIAPSIS":"538.234","EPOCH":"2022-05-03T22:00:00.999936","REF_FRAME":"TEME","MEAN_ANOMALY":"264.8031","PERIOD":"95.437","MEAN_MOTION":"15.08843021","OBJECT_ID":"2021-125AF","BSTAR":"0.00057291000000","TLE_LINE1":"1 50185U 21125AF  22123.91667824  .00008842  00000-0  57291-3 0  9992","RA_OF_ASC_NODE":"79.8749","CENTER_NAME":"EARTH","TLE_LINE2":"2 50185  53.2191  79.8749 0002171  42.0299 264.8031 15.08843021 23891","APOAPSIS":"541.238","MEAN_ELEMENT_THEORY":"SGP4","REV_AT_EPOCH":"2389","ELEMENT_SET_NO":"999","MEAN_MOTION_DOT":"0.00008842","SEMIMAJOR_AXIS":"6917.871","SITE":"AFWTR","EPHEMERIS_TYPE":"0","ECCENTRICITY":"0.00021710","COUNTRY_CODE":"US","MEAN_MOTION_DDOT":"0.0000000000000","CLASSIFICATION_TYPE":"U","ARG_OF_PERICENTER":"42.0299","RCS_SIZE":"LARGE","TIME_SYSTEM":"UTC"}];
